ONEWEB-0258             
1 48976U 21060K   26148.26913584 -.00000028  00000+0 -10794-3 0  9997
2 48976  87.9105 232.7371 0001971 101.7879 258.3473 13.16593026236977
ONEWEB-0259             
1 48977U 21060L   26148.26281031 -.00000001  00000+0 -36633-4 0  9995
2 48977  87.9105 232.7382 0001875 103.9627 256.1712 13.16593847237006
ONEWEB-0260             
1 48978U 21060M   26148.25408644  .00000053  00000+0  10376-3 0  9996
2 48978  87.9102 232.7427 0002287  91.9740 268.1652 13.16593337236980
ONEWEB-0261             
1 48979U 21060N   26148.22401702  .00000105  00000+0  24211-3 0  9993
2 48979  87.9104 232.7479 0001744  90.4594 269.6737 13.16594954237031
ONEWEB-0262             
1 48980U 21060P   26148.28022449  .00000000  00000+0 -32582-4 0  9994
2 48980  87.9105 232.7223 0001802 106.8604 253.2725 13.16593241237001
ONEWEB-0263             
1 48981U 21060Q   26148.23589208  .00000118  00000+0  27620-3 0  9996
2 48981  87.9108 232.7422 0001668  94.2847 265.8475 13.16594307236964
ONEWEB-0264             
1 48982U 21060R   26148.27310454 -.00000006  00000+0 -50529-4 0  9999
2 48982  87.9104 232.7384 0001977  93.6340 266.5017 13.16593099236970
ONEWEB-0266             
1 48984U 21060T   26148.29446651  .00000099  00000+0  22458-3 0  9991
2 48984  87.9106 232.7245 0002047 102.7843 257.3517 13.16593100236964
ONEWEB-0267             
1 48985U 21060U   26148.22955936  .00000113  00000+0  26094-3 0  9993
2 48985  87.9107 232.7336 0001866  94.5181 265.6163 13.16593755236963
ONEWEB-0268             
1 48986U 21060V   26148.27389612  .00000054  00000+0  10769-3 0  9997
2 48986  87.9106 232.7343 0002104  97.0974 263.0396 13.16594954237238
ONEWEB-0269             
1 48987U 21060W   26148.25489001 -.00000051  00000+0 -16791-3 0  9999
2 48987  87.9094 232.7430 0002189  99.2713 260.8666 13.16593448237007
ONEWEB-0270             
1 48988U 21060X   26148.27230830 -.00000057  00000+0 -18217-3 0  9997
2 48988  87.9109 232.7370 0001634 101.8149 258.3165 13.16593358237045
ONEWEB-0271             
1 48989U 21060Y   26148.25963996  .00000007  00000+0 -15699-4 0  9998
2 48989  87.9105 232.7294 0001800  96.8975 263.2361 13.16593334237049
ONEWEB-0272             
1 48990U 21060Z   26148.28180419  .00000064  00000+0  13449-3 0  9996
2 48990  87.9105 232.7368 0002042  91.8530 268.2835 13.16595166236993
ONEWEB-0273             
1 48991U 21060AA  26148.22797793  .00000118  00000+0  27621-3 0  9997
2 48991  87.9110 232.7461 0001840  97.7883 262.3457 13.16593816236967
ONEWEB-0274             
1 48992U 21060AB  26148.25329328 -.00000107  00000+0 -31316-3 0  9992
2 48992  87.9099 232.7461 0002210  92.0583 268.0801 13.16594810237008
