[{"OBJECT_NAME":"ONEWEB-0258","OBJECT_ID":"2021-060K","EPOCH":"2026-05-28T06:27:33.336576","MEAN_MOTION":13.16593026,"ECCENTRICITY":0.0001971,"INCLINATION":87.9105,"RA_OF_ASC_NODE":232.7371,"ARG_OF_PERICENTER":101.7879,"MEAN_ANOMALY":258.3473,"EPHEMERIS_TYPE":0,"CLASSIFICATION_TYPE":"U","NORAD_CAT_ID":48976,"ELEMENT_SET_NO":999,"REV_AT_EPOCH":23697,"BSTAR":-0.00010794,"MEAN_MOTION_DOT":-2.8e-07,"MEAN_MOTION_DDOT":0.0},{"OBJECT_NAME":"ONEWEB-0259","OBJECT_ID":"2021-060L","EPOCH":"2026-05-28T06:18:26.810784","MEAN_MOTION":13.16593847,"ECCENTRICITY":0.0001875,"INCLINATION":87.9105,"RA_OF_ASC_NODE":232.7382,"ARG_OF_PERICENTER":103.9627,"MEAN_ANOMALY":256.1712,"EPHEMERIS_TYPE":0,"CLASSIFICATION_TYPE":"U","NORAD_CAT_ID":48977,"ELEMENT_SET_NO":999,"REV_AT_EPOCH":23700,"BSTAR":-3.6633e-05,"MEAN_MOTION_DOT":-1e-08,"MEAN_MOTION_DDOT":0.0},{"OBJECT_NAME":"ONEWEB-0260","OBJECT_ID":"2021-060M","EPOCH":"2026-05-28T06:05:53.068416","MEAN_MOTION":13.16593337,"ECCENTRICITY":0.0002287,"INCLINATION":87.9102,"RA_OF_ASC_NODE":232.7427,"ARG_OF_PERICENTER":91.974,"MEAN_ANOMALY":268.1652,"EPHEMERIS_TYPE":0,"CLASSIFICATION_TYPE":"U","NORAD_CAT_ID":48978,"ELEMENT_SET_NO":999,"REV_AT_EPOCH":23698,"BSTAR":0.00010376000000000001,"MEAN_MOTION_DOT":5.3e-07,"MEAN_MOTION_DDOT":0.0},{"OBJECT_NAME":"ONEWEB-0261","OBJECT_ID":"2021-060N","EPOCH":"2026-05-28T05:22:35.070528","MEAN_MOTION":13.16594954,"ECCENTRICITY":0.0001744,"INCLINATION":87.9104,"RA_OF_ASC_NODE":232.7479,"ARG_OF_PERICENTER":90.4594,"MEAN_ANOMALY":269.6737,"EPHEMERIS_TYPE":0,"CLASSIFICATION_TYPE":"U","NORAD_CAT_ID":48979,"ELEMENT_SET_NO":999,"REV_AT_EPOCH":23703,"BSTAR":0.00024211,"MEAN_MOTION_DOT":1.05e-06,"MEAN_MOTION_DDOT":0.0},{"OBJECT_NAME":"ONEWEB-0262","OBJECT_ID":"2021-060P","EPOCH":"2026-05-28T06:43:31.395936","MEAN_MOTION":13.16593241,"ECCENTRICITY":0.0001802,"INCLINATION":87.9105,"RA_OF_ASC_NODE":232.7223,"ARG_OF_PERICENTER":106.8604,"MEAN_ANOMALY":253.2725,"EPHEMERIS_TYPE":0,"CLASSIFICATION_TYPE":"U","NORAD_CAT_ID":48980,"ELEMENT_SET_NO":999,"REV_AT_EPOCH":23700,"BSTAR":-3.2582e-05,"MEAN_MOTION_DOT":0.0,"MEAN_MOTION_DDOT":0.0},{"OBJECT_NAME":"ONEWEB-0263","OBJECT_ID":"2021-060Q","EPOCH":"2026-05-28T05:39:41.075712","MEAN_MOTION":13.16594307,"ECCENTRICITY":0.0001668,"INCLINATION":87.9108,"RA_OF_ASC_NODE":232.7422,"ARG_OF_PERICENTER":94.2847,"MEAN_ANOMALY":265.8475,"EPHEMERIS_TYPE":0,"CLASSIFICATION_TYPE":"U","NORAD_CAT_ID":48981,"ELEMENT_SET_NO":999,"REV_AT_EPOCH":23696,"BSTAR":0.0002762,"MEAN_MOTION_DOT":1.18e-06,"MEAN_MOTION_DDOT":0.0},{"OBJECT_NAME":"ONEWEB-0264","OBJECT_ID":"2021-060R","EPOCH":"2026-05-28T06:33:16.232256","MEAN_MOTION":13.16593099,"ECCENTRICITY":0.0001977,"INCLINATION":87.9104,"RA_OF_ASC_NODE":232.7384,"ARG_OF_PERICENTER":93.634,"MEAN_ANOMALY":266.5017,"EPHEMERIS_TYPE":0,"CLASSIFICATION_TYPE":"U","NORAD_CAT_ID":48982,"ELEMENT_SET_NO":999,"REV_AT_EPOCH":23697,"BSTAR":-5.0529000000000004e-05,"MEAN_MOTION_DOT":-6e-08,"MEAN_MOTION_DDOT":0.0},{"OBJECT_NAME":"ONEWEB-0266","OBJECT_ID":"2021-060T","EPOCH":"2026-05-28T07:04:01.906464","MEAN_MOTION":13.165931,"ECCENTRICITY":0.0002047,"INCLINATION":87.9106,"RA_OF_ASC_NODE":232.7245,"ARG_OF_PERICENTER":102.7843,"MEAN_ANOMALY":257.3517,"EPHEMERIS_TYPE":0,"CLASSIFICATION_TYPE":"U","NORAD_CAT_ID":48984,"ELEMENT_SET_NO":999,"REV_AT_EPOCH":23696,"BSTAR":0.00022458,"MEAN_MOTION_DOT":9.9e-07,"MEAN_MOTION_DDOT":0.0},{"OBJECT_NAME":"ONEWEB-0267","OBJECT_ID":"2021-060U","EPOCH":"2026-05-28T05:30:33.928704","MEAN_MOTION":13.16593755,"ECCENTRICITY":0.0001866,"INCLINATION":87.9107,"RA_OF_ASC_NODE":232.7336,"ARG_OF_PERICENTER":94.5181,"MEAN_ANOMALY":265.6163,"EPHEMERIS_TYPE":0,"CLASSIFICATION_TYPE":"U","NORAD_CAT_ID":48985,"ELEMENT_SET_NO":999,"REV_AT_EPOCH":23696,"BSTAR":0.00026094000000000003,"MEAN_MOTION_DOT":1.13e-06,"MEAN_MOTION_DDOT":0.0},{"OBJECT_NAME":"ONEWEB-0268","OBJECT_ID":"2021-060V","EPOCH":"2026-05-28T06:34:24.624768","MEAN_MOTION":13.16594954,"ECCENTRICITY":0.0002104,"INCLINATION":87.9106,"RA_OF_ASC_NODE":232.7343,"ARG_OF_PERICENTER":97.0974,"MEAN_ANOMALY":263.0396,"EPHEMERIS_TYPE":0,"CLASSIFICATION_TYPE":"U","NORAD_CAT_ID":48986,"ELEMENT_SET_NO":999,"REV_AT_EPOCH":23723,"BSTAR":0.00010769,"MEAN_MOTION_DOT":5.4e-07,"MEAN_MOTION_DDOT":0.0},{"OBJECT_NAME":"ONEWEB-0269","OBJECT_ID":"2021-060W","EPOCH":"2026-05-28T06:07:02.496864","MEAN_MOTION":13.16593448,"ECCENTRICITY":0.0002189,"INCLINATION":87.9094,"RA_OF_ASC_NODE":232.743,"ARG_OF_PERICENTER":99.2713,"MEAN_ANOMALY":260.8666,"EPHEMERIS_TYPE":0,"CLASSIFICATION_TYPE":"U","NORAD_CAT_ID":48987,"ELEMENT_SET_NO":999,"REV_AT_EPOCH":23700,"BSTAR":-0.00016791,"MEAN_MOTION_DOT":-5.1e-07,"MEAN_MOTION_DDOT":0.0},{"OBJECT_NAME":"ONEWEB-0270","OBJECT_ID":"2021-060X","EPOCH":"2026-05-28T06:32:07.437120","MEAN_MOTION":13.16593358,"ECCENTRICITY":0.0001634,"INCLINATION":87.9109,"RA_OF_ASC_NODE":232.737,"ARG_OF_PERICENTER":101.8149,"MEAN_ANOMALY":258.3165,"EPHEMERIS_TYPE":0,"CLASSIFICATION_TYPE":"U","NORAD_CAT_ID":48988,"ELEMENT_SET_NO":999,"REV_AT_EPOCH":23704,"BSTAR":-0.00018217,"MEAN_MOTION_DOT":-5.7e-07,"MEAN_MOTION_DDOT":0.0},{"OBJECT_NAME":"ONEWEB-0271","OBJECT_ID":"2021-060Y","EPOCH":"2026-05-28T06:13:52.892544","MEAN_MOTION":13.16593334,"ECCENTRICITY":0.00018,"INCLINATION":87.9105,"RA_OF_ASC_NODE":232.7294,"ARG_OF_PERICENTER":96.8975,"MEAN_ANOMALY":263.2361,"EPHEMERIS_TYPE":0,"CLASSIFICATION_TYPE":"U","NORAD_CAT_ID":48989,"ELEMENT_SET_NO":999,"REV_AT_EPOCH":23704,"BSTAR":-1.5699e-05,"MEAN_MOTION_DOT":7e-08,"MEAN_MOTION_DDOT":0.0},{"OBJECT_NAME":"ONEWEB-0272","OBJECT_ID":"2021-060Z","EPOCH":"2026-05-28T06:45:47.882016","MEAN_MOTION":13.16595166,"ECCENTRICITY":0.0002042,"INCLINATION":87.9105,"RA_OF_ASC_NODE":232.7368,"ARG_OF_PERICENTER":91.853,"MEAN_ANOMALY":268.2835,"EPHEMERIS_TYPE":0,"CLASSIFICATION_TYPE":"U","NORAD_CAT_ID":48990,"ELEMENT_SET_NO":999,"REV_AT_EPOCH":23699,"BSTAR":0.00013449,"MEAN_MOTION_DOT":6.4e-07,"MEAN_MOTION_DDOT":0.0},{"OBJECT_NAME":"ONEWEB-0273","OBJECT_ID":"2021-060AA","EPOCH":"2026-05-28T05:28:17.293152","MEAN_MOTION":13.16593816,"ECCENTRICITY":0.000184,"INCLINATION":87.911,"RA_OF_ASC_NODE":232.7461,"ARG_OF_PERICENTER":97.7883,"MEAN_ANOMALY":262.3457,"EPHEMERIS_TYPE":0,"CLASSIFICATION_TYPE":"U","NORAD_CAT_ID":48991,"ELEMENT_SET_NO":999,"REV_AT_EPOCH":23696,"BSTAR":0.00027621000000000004,"MEAN_MOTION_DOT":1.18e-06,"MEAN_MOTION_DDOT":0.0},{"OBJECT_NAME":"ONEWEB-0274","OBJECT_ID":"2021-060AB","EPOCH":"2026-05-28T06:04:44.539392","MEAN_MOTION":13.1659481,"ECCENTRICITY":0.000221,"INCLINATION":87.9099,"RA_OF_ASC_NODE":232.7461,"ARG_OF_PERICENTER":92.0583,"MEAN_ANOMALY":268.0801,"EPHEMERIS_TYPE":0,"CLASSIFICATION_TYPE":"U","NORAD_CAT_ID":48992,"ELEMENT_SET_NO":999,"REV_AT_EPOCH":23700,"BSTAR":-0.00031316,"MEAN_MOTION_DOT":-1.07e-06,"MEAN_MOTION_DDOT":0.0}]